[Satellite]
VERSION=1.1
NAME=RADUGA 22 [-]
NICKNAME=RADUGA 22 [-]
TLE1=1 19596U 88095A   17186.19910830  .00000031  00000-0  00000-0 0  9998
TLE2=2 19596  14.8248 358.1019 0002263 137.6782 229.3836  1.00265456 88876
